{"type": "FeatureCollection", "features": [ {"type": "Feature", "properties": {"norad_id": 66939, "name": "STARLINK-36154", "group": "last-30-days", "lat": -8.33549057485299, "lon": -166.3290491208652, "alt_km": 349.21672807680534, "timestamp": "2025-12-21T07:34:33.303368+00:00", "meta": {"OBJECT_NAME": "STARLINK-36154", "OBJECT_ID": "2025-286Q", "EPOCH": "2025-12-20T22:00:01.999584", "MEAN_MOTION": 15.75173113, "ECCENTRICITY": 0.00010679, "INCLINATION": 53.1569, "RA_OF_ASC_NODE": 9.3456, "ARG_OF_PERICENTER": 77.2527, "MEAN_ANOMALY": 10.0857, "EPHEMERIS_TYPE": 0, "CLASSIFICATION_TYPE": "U", "NORAD_CAT_ID": 66939, "ELEMENT_SET_NO": 999, "REV_AT_EPOCH": 330, "BSTAR": -0.0087745448, "MEAN_MOTION_DOT": -0.01190592, "MEAN_MOTION_DDOT": 0}, "tle": {"line1": "1 66939U 25286Q   25354.91668981 -.01190592  00000+0 -87745-2 0  9994", "line2": "2 66939  53.1569   9.3456 0001067  77.2527  10.0857 15.75173113  3306"}}, "geometry": {"type": "Point", "coordinates": [-166.3290491208652, -8.33549057485299]}}, {"type": "Feature", "properties": {"norad_id": 66940, "name": "STARLINK-36121", "group": "last-30-days", "lat": -9.853399018419724, "lon": -165.15765777009042, "alt_km": 349.4474728230198, "timestamp": "2025-12-21T07:34:33.303378+00:00", "meta": {"OBJECT_NAME": "STARLINK-36121", "OBJECT_ID": "2025-286R", "EPOCH": "2025-12-20T22:00:01.999584", "MEAN_MOTION": 15.7511694, "ECCENTRICITY": 7.504e-05, "INCLINATION": 53.157, "RA_OF_ASC_NODE": 9.341, "ARG_OF_PERICENTER": 82.3488, "MEAN_ANOMALY": 6.954, "EPHEMERIS_TYPE": 0, "CLASSIFICATION_TYPE": "U", "NORAD_CAT_ID": 66940, "ELEMENT_SET_NO": 999, "REV_AT_EPOCH": 330, "BSTAR": -0.0084212242, "MEAN_MOTION_DOT": -0.0114519, "MEAN_MOTION_DDOT": 0}, "tle": {"line1": "1 66940U 25286R   25354.91668981 -.01145190  00000+0 -84212-2 0  9996", "line2": "2 66940  53.1570   9.3410 0000750  82.3488   6.9540 15.75116940  3309"}}, "geometry": {"type": "Point", "coordinates": [-165.15765777009042, -9.853399018419724]}}, {"type": "Feature", "properties": {"norad_id": 66941, "name": "STARLINK-36088", "group": "last-30-days", "lat": -6.800396801713539, "lon": -167.50283397727415, "alt_km": 348.89466787285437, "timestamp": "2025-12-21T07:34:33.303386+00:00", "meta": {"OBJECT_NAME": "STARLINK-36088", "OBJECT_ID": "2025-286S", "EPOCH": "2025-12-20T22:00:01.999584", "MEAN_MOTION": 15.75252169, "ECCENTRICITY": 8.13e-05, "INCLINATION": 53.1573, "RA_OF_ASC_NODE": 9.3493, "ARG_OF_PERICENTER": 94.5181, "MEAN_ANOMALY": 350.8341, "EPHEMERIS_TYPE": 0, "CLASSIFICATION_TYPE": "U", "NORAD_CAT_ID": 66941, "ELEMENT_SET_NO": 999, "REV_AT_EPOCH": 330, "BSTAR": -0.0093774182, "MEAN_MOTION_DOT": -0.01289527, "MEAN_MOTION_DDOT": 0}, "tle": {"line1": "1 66941U 25286S   25354.91668981 -.01289527  00000+0 -93774-2 0  9993", "line2": "2 66941  53.1573   9.3493 0000813  94.5181 350.8341 15.75252169  3303"}}, "geometry": {"type": "Point", "coordinates": [-167.50283397727415, -6.800396801713539]}}, {"type": "Feature", "properties": {"norad_id": 66942, "name": "STARLINK-36100", "group": "last-30-days", "lat": -11.363202355377, "lon": -163.9779651217952, "alt_km": 349.9671261274416, "timestamp": "2025-12-21T07:34:33.303395+00:00", "meta": {"OBJECT_NAME": "STARLINK-36100", "OBJECT_ID": "2025-286T", "EPOCH": "2025-12-20T22:00:01.999584", "MEAN_MOTION": 15.75168666, "ECCENTRICITY": 0.00011626, "INCLINATION": 53.1568, "RA_OF_ASC_NODE": 9.3369, "ARG_OF_PERICENTER": 80.9389, "MEAN_ANOMALY": 10.3213, "EPHEMERIS_TYPE": 0, "CLASSIFICATION_TYPE": "U", "NORAD_CAT_ID": 66942, "ELEMENT_SET_NO": 999, "REV_AT_EPOCH": 323, "BSTAR": -0.0099377591, "MEAN_MOTION_DOT": -0.01353932, "MEAN_MOTION_DDOT": 0}, "tle": {"line1": "1 66942U 25286T   25354.91668981 -.01353932  00000+0 -99378-2 0  9992", "line2": "2 66942  53.1568   9.3369 0001162  80.9389  10.3213 15.75168666  3233"}}, "geometry": {"type": "Point", "coordinates": [-163.9779651217952, -11.363202355377]}}, {"type": "Feature", "properties": {"norad_id": 66943, "name": "STARLINK-36109", "group": "last-30-days", "lat": -12.884825415293795, "lon": -162.77266677859618, "alt_km": 349.76290410845377, "timestamp": "2025-12-21T07:34:33.303405+00:00", "meta": {"OBJECT_NAME": "STARLINK-36109", "OBJECT_ID": "2025-286U", "EPOCH": "2025-12-20T22:00:01.999584", "MEAN_MOTION": 15.74918524, "ECCENTRICITY": 8.265e-05, "INCLINATION": 53.1568, "RA_OF_ASC_NODE": 9.3325, "ARG_OF_PERICENTER": 95.7429, "MEAN_ANOMALY": 357.555, "EPHEMERIS_TYPE": 0, "CLASSIFICATION_TYPE": "U", "NORAD_CAT_ID": 66943, "ELEMENT_SET_NO": 999, "REV_AT_EPOCH": 323, "BSTAR": -0.0070352391, "MEAN_MOTION_DOT": -0.00951064, "MEAN_MOTION_DDOT": 0}, "tle": {"line1": "1 66943U 25286U   25354.91668981 -.00951064  00000+0 -70352-2 0  9993", "line2": "2 66943  53.1568   9.3325 0000826  95.7429 357.5550 15.74918524  3236"}}, "geometry": {"type": "Point", "coordinates": [-162.77266677859618, -12.884825415293795]}}, {"type": "Feature", "properties": {"norad_id": 66944, "name": "STARLINK-36112", "group": "last-30-days", "lat": -14.389391481859468, "lon": -161.56167821377727, "alt_km": 349.6912561977824, "timestamp": "2025-12-21T07:34:33.303414+00:00", "meta": {"OBJECT_NAME": "STARLINK-36112", "OBJECT_ID": "2025-286V", "EPOCH": "2025-12-20T22:00:01.999584", "MEAN_MOTION": 15.74865204, "ECCENTRICITY": 6.482e-05, "INCLINATION": 53.1569, "RA_OF_ASC_NODE": 9.3285, "ARG_OF_PERICENTER": 121.5155, "MEAN_ANOMALY": 333.7394, "EPHEMERIS_TYPE": 0, "CLASSIFICATION_TYPE": "U", "NORAD_CAT_ID": 66944, "ELEMENT_SET_NO": 999, "REV_AT_EPOCH": 330, "BSTAR": -0.0066390902, "MEAN_MOTION_DOT": -0.00900906, "MEAN_MOTION_DDOT": 0}, "tle": {"line1": "1 66944U 25286V   25354.91668981 -.00900906  00000+0 -66391-2 0  9991", "line2": "2 66944  53.1569   9.3285 0000648 121.5155 333.7394 15.74865204  3305"}}, "geometry": {"type": "Point", "coordinates": [-161.56167821377727, -14.389391481859468]}}, {"type": "Feature", "properties": {"norad_id": 66945, "name": "STARLINK-36110", "group": "last-30-days", "lat": -15.89052021526716, "lon": -160.33197743772928, "alt_km": 350.12665889378604, "timestamp": "2025-12-21T07:34:33.303425+00:00", "meta": {"OBJECT_NAME": "STARLINK-36110", "OBJECT_ID": "2025-286W", "EPOCH": "2025-12-20T22:00:01.999584", "MEAN_MOTION": 15.7474866, "ECCENTRICITY": 9.877e-05, "INCLINATION": 53.1567, "RA_OF_ASC_NODE": 9.3242, "ARG_OF_PERICENTER": 97.3235, "MEAN_ANOMALY": 359.9303, "EPHEMERIS_TYPE": 0, "CLASSIFICATION_TYPE": "U", "NORAD_CAT_ID": 66945, "ELEMENT_SET_NO": 999, "REV_AT_EPOCH": 330, "BSTAR": -0.0056960931, "MEAN_MOTION_DOT": -0.00780433, "MEAN_MOTION_DDOT": 0}, "tle": {"line1": "1 66945U 25286W   25354.91668981 -.00780433  00000+0 -56961-2 0  9995", "line2": "2 66945  53.1567   9.3242 0000987  97.3235 359.9303 15.74748660  3308"}}, "geometry": {"type": "Point", "coordinates": [-160.33197743772928, -15.89052021526716]}}, {"type": "Feature", "properties": {"norad_id": 66946, "name": "STARLINK-36115", "group": "last-30-days", "lat": -17.382213574579385, "lon": -159.08569991248714, "alt_km": 350.1904579015263, "timestamp": "2025-12-21T07:34:33.303434+00:00", "meta": {"OBJECT_NAME": "STARLINK-36115", "OBJECT_ID": "2025-286X", "EPOCH": "2025-12-20T22:00:01.999584", "MEAN_MOTION": 15.74681348, "ECCENTRICITY": 8.557e-05, "INCLINATION": 53.1567, "RA_OF_ASC_NODE": 9.3201, "ARG_OF_PERICENTER": 104.4748, "MEAN_ANOMALY": 354.7425, "EPHEMERIS_TYPE": 0, "CLASSIFICATION_TYPE": "U", "NORAD_CAT_ID": 66946, "ELEMENT_SET_NO": 999, "REV_AT_EPOCH": 330, "BSTAR": -0.0051336023, "MEAN_MOTION_DOT": -0.00707434, "MEAN_MOTION_DDOT": 0}, "tle": {"line1": "1 66946U 25286X   25354.91668981 -.00707434  00000+0 -51336-2 0  9997", "line2": "2 66946  53.1567   9.3201 0000855 104.4748 354.7425 15.74681348  3304"}}, "geometry": {"type": "Point", "coordinates": [-159.08569991248714, -17.382213574579385]}}, {"type": "Feature", "properties": {"norad_id": 66947, "name": "STARLINK-36089", "group": "last-30-days", "lat": -20.33957783334926, "lon": -156.53092611914647, "alt_km": 350.3535125863136, "timestamp": "2025-12-21T07:34:33.303443+00:00", "meta": {"OBJECT_NAME": "STARLINK-36089", "OBJECT_ID": "2025-286Y", "EPOCH": "2025-12-20T22:00:01.999584", "MEAN_MOTION": 15.74506024, "ECCENTRICITY": 5.822e-05, "INCLINATION": 53.1568, "RA_OF_ASC_NODE": 9.3118, "ARG_OF_PERICENTER": 110.8859, "MEAN_ANOMALY": 352.2722, "EPHEMERIS_TYPE": 0, "CLASSIFICATION_TYPE": "U", "NORAD_CAT_ID": 66947, "ELEMENT_SET_NO": 999, "REV_AT_EPOCH": 330, "BSTAR": -0.0034878244, "MEAN_MOTION_DOT": -0.00489511, "MEAN_MOTION_DDOT": 0}, "tle": {"line1": "1 66947U 25286Y   25354.91668981 -.00489511  00000+0 -34878-2 0  9993", "line2": "2 66947  53.1568   9.3118 0000582 110.8859 352.2722 15.74506024  3304"}}, "geometry": {"type": "Point", "coordinates": [-156.53092611914647, -20.33957783334926]}}, {"type": "Feature", "properties": {"norad_id": 66948, "name": "STARLINK-36116", "group": "last-30-days", "lat": -18.863446901521222, "lon": -157.82107236068333, "alt_km": 350.25271906643593, "timestamp": "2025-12-21T07:34:33.303454+00:00", "meta": {"OBJECT_NAME": "STARLINK-36116", "OBJECT_ID": "2025-286Z", "EPOCH": "2025-12-20T22:00:01.999584", "MEAN_MOTION": 15.74544198, "ECCENTRICITY": 5.629e-05, "INCLINATION": 53.1567, "RA_OF_ASC_NODE": 9.316, "ARG_OF_PERICENTER": 104.3864, "MEAN_ANOMALY": 356.8275, "EPHEMERIS_TYPE": 0, "CLASSIFICATION_TYPE": "U", "NORAD_CAT_ID": 66948, "ELEMENT_SET_NO": 999, "REV_AT_EPOCH": 330, "BSTAR": -0.0037930216, "MEAN_MOTION_DOT": -0.00530615, "MEAN_MOTION_DDOT": 0}, "tle": {"line1": "1 66948U 25286Z   25354.91668981 -.00530615  00000+0 -37930-2 0  9998", "line2": "2 66948  53.1567   9.3160 0000562 104.3864 356.8275 15.74544198  3300"}}, "geometry": {"type": "Point", "coordinates": [-157.82107236068333, -18.863446901521222]}}]}